OBJECT_NAME,OBJECT_ID,EPOCH,MEAN_MOTION,ECCENTRICITY,INCLINATION,RA_OF_ASC_NODE,ARG_OF_PERICENTER,MEAN_ANOMALY,EPHEMERIS_TYPE,CLASSIFICATION_TYPE,NORAD_CAT_ID,ELEMENT_SET_NO,REV_AT_EPOCH,BSTAR,MEAN_MOTION_DOT,MEAN_MOTION_DDOT
TJS-14,2025-017A,2026-07-15T20:50:38.609088,1.00267314,.00020519,0.7195,297.7790,308.9614,18.0438,0,U,62804,999,555,0,.105E-5,0
SPAINSAT NG I,2025-021A,2026-07-15T22:03:41.849568,1.00270376,.00001071,0.0198,35.6590,243.2282,14.7714,0,U,62852,999,427,0,.141E-5,0
QZS-6 (MICHIBIKI-6),2025-023A,2026-07-15T18:55:58.867392,1.00266863,.00018396,0.0103,12.6020,119.3403,176.0977,0,U,62876,999,523,0,-.242E-5,0
ZHONGXING-10R,2025-036A,2026-07-15T20:44:20.087232,1.00271932,.00042151,0.0163,222.5924,284.6409,208.0705,0,U,63075,999,524,0,-.362E-5,0
TJS-15,2025-045A,2026-07-15T18:56:58.771104,1.00273597,.0003066,0.3119,85.6598,292.9051,293.6840,0,U,63157,999,504,0,-.275E-5,0
TIANLIAN 2-04,2025-062A,2026-07-15T20:35:41.208576,1.00271313,.00316031,4.3025,274.0277,9.2105,39.3974,0,U,63361,999,489,0,-.143E-5,0
TJS-16,2025-064A,2026-07-15T18:53:54.994848,1.00270906,.0002479,1.1700,81.2787,291.6842,4.7594,0,U,63397,999,467,0,-.116E-5,0
TJS-17,2025-073A,2026-07-15T18:52:29.960832,1.00270762,.0000992,1.1360,82.4463,306.3943,352.4100,0,U,63524,999,457,0,-.81E-6,0
TIANLIAN 2-05,2025-084A,2026-07-15T22:01:12.088992,1.00271857,.00026003,4.3799,279.5073,154.6200,210.2884,0,U,63662,999,467,0,.116E-5,0
TJS-19,2025-097A,2026-07-15T18:54:44.013024,1.00275653,.0004092,3.2394,317.9160,253.1642,147.4040,0,U,63924,999,443,0,-.283E-5,0
CHINASAT 3B,2025-106A,2026-07-15T19:17:49.273728,1.00271282,.0003979,0.0244,146.9233,359.3460,244.1417,0,U,64062,999,434,0,-.55E-6,0
SXM-10,2025-122A,2026-07-13T14:37:25.836384,1.00271903,.00018282,0.0157,36.2449,322.9748,35.4661,0,U,64290,999,394,0,-.21E-6,0
COSMOS 2589,2025-131A,2026-07-15T18:30:21.915072,1.00270156,.0000982,0.0263,114.6010,81.0100,113.6102,0,U,64467,999,384,0,-.301E-5,0
CHINASAT 9C,2025-132A,2026-07-15T20:39:05.588640,1.00266578,.00030215,0.0192,78.3923,36.4113,220.8702,0,U,64470,999,443,0,0,0
MTG-S1,2025-143A,2026-07-15T21:16:38.625888,1.00273732,.00034271,0.5838,345.2794,260.9778,6.2294,0,U,64723,999,370,0,-.17E-6,0
DROR 1,2025-148A,2026-07-15T21:16:38.625888,1.00272089,.00019832,0.0459,250.8655,146.4293,211.5909,0,U,64784,999,358,0,-.45E-6,0
SHIYAN-29,2025-196A,2026-07-15T16:49:46.684128,1.00276249,.00132577,28.8520,18.1755,177.9040,85.2184,0,U,65486,999,316,0,-.287E-5,0
NUSANTARA LIMA (NUSANTARA 5),2025-205A,2026-07-15T19:02:20.757120,1.00271718,.00004094,0.0085,120.1832,84.7645,127.1025,0,U,65588,999,300,0,-.368E-5,0
TJS-20,2025-238A,2026-07-15T22:13:10.941312,1.00275280,.00043096,5.4063,299.4408,182.5842,207.5074,0,U,66142,999,262,0,.17E-6,0
CMS-03 (GSAT-7R),2025-249B,2026-07-15T22:16:33.118176,1.00271386,.0001497,0.0137,327.6780,113.0391,261.1577,0,U,66311,999,263,0,-.87E-6,0
VIASAT-3 F2,2025-261A,2026-07-14T07:54:32.066784,1.00270448,.00007495,0.0014,307.9780,275.9845,107.8920,0,U,66454,999,306,0,-.24E-5,0
SHIJIAN-28 (SJ-28),2025-277A,2026-07-15T17:20:43.079712,1.00266659,.00011419,4.4659,271.6800,22.6060,16.2463,0,U,66549,999,244,0,-.368E-5,0
TJS-22,2025-290A,2026-07-12T19:22:52.255200,1.00269739,.0002691,1.4677,286.9097,318.9700,42.0235,0,U,66990,999,228,0,-.5E-7,0
TJS-23,2025-306A,2026-07-15T12:34:28.658784,1.00275619,.00050357,5.5248,297.3376,195.1882,165.0385,0,U,67226,999,217,0,.13E-6,0
FENGYUN 4C,2025-312A,2026-07-13T15:48:28.031328,1.00269440,.00006584,0.0385,175.3203,48.7481,77.5697,0,U,67246,999,204,0,-.328E-5,0
SHIJIAN-29A (SJ-29A),2025-315A,2026-07-15T23:12:21.796416,1.00272517,.00049001,3.4691,94.4166,52.1052,208.5353,0,U,67302,999,190,0,-.8E-6,0
SHIJIAN-29B (SJ-29B),2025-315C,2026-07-15T22:16:18.141600,1.00272786,.00050401,3.4680,94.4104,54.2684,192.3730,0,U,67403,999,197,0,-.81E-6,0
ELEKTRO-L 5,2026-028A,2026-07-14T23:24:18.492192,1.00271918,.0002073,0.2077,324.6350,175.9176,219.4446,0,U,67756,999,152,0,-.107E-5,0
JAM-E JAM 1,2026-028B,2026-07-15T22:05:11.707296,1.00274299,.00016593,0.2052,313.2597,320.1006,25.7303,0,U,67757,999,140,0,.145E-5,0
ECHOSTAR 25,2026-045A,2026-07-15T21:23:53.794176,1.00268808,.00017162,0.0223,63.5269,47.9654,33.2296,0,U,68126,999,128,0,0,0
TJS-24,2026-116A,2026-07-15T20:38:35.637216,1.00269642,.00003648,0.0792,94.6608,120.9289,118.0438,0,U,69235,999,51,0,-.241E-5,0
